start=new Date('2021-10-28T00:00:00.000Z').valueOf();
sats=[{"COUNTRY_CODE":"US","RA_OF_ASC_NODE":"338.9215","RCS_SIZE":"LARGE","NORAD_CAT_ID":"47561","CENTER_NAME":"EARTH","REF_FRAME":"TEME","LAUNCH_DATE":"2021-02-04","MEAN_ELEMENT_THEORY":"SGP4","ARG_OF_PERICENTER":"5.3658","SITE":"AFETR","MEAN_MOTION_DDOT":"0.0000000000000","MEAN_ANOMALY":"354.7384","DECAY_DATE":null,"CLASSIFICATION_TYPE":"U","TLE_LINE1":"1 47561U 21009P   21300.34315723 -.00000262  00000-0  14057-5 0  9992","APOAPSIS":"550.681","OBJECT_TYPE":"PAYLOAD","EPOCH":"2021-10-27T08:14:08.784672","BSTAR":"0.00000140570000","PERIAPSIS":"543.694","REV_AT_EPOCH":"4049","FILE":"3187107","GP_ID":"188272658","SEMIMAJOR_AXIS":"6925.322","OBJECT_ID":"2021-009P","PERIOD":"95.592","TLE_LINE2":"2 47561  53.0580 338.9215 0005045   5.3658 354.7384 15.06408529 40499","TIME_SYSTEM":"UTC","EPHEMERIS_TYPE":"0","INCLINATION":"53.0580","ELEMENT_SET_NO":"999","MEAN_MOTION_DOT":"-0.00000262","MEAN_MOTION":"15.06408529","ECCENTRICITY":"0.00050450","OBJECT_NAME":"STARLINK-1960"},{"TLE_LINE1":"1 47562U 21009Q   21300.35789404  .00000248  00000-0  35523-4 0  9998","APOAPSIS":"548.047","MEAN_MOTION_DDOT":"0.0000000000000","SITE":"AFETR","DECAY_DATE":null,"CLASSIFICATION_TYPE":"U","MEAN_ANOMALY":"275.4858","LAUNCH_DATE":"2021-02-04","REF_FRAME":"TEME","MEAN_ELEMENT_THEORY":"SGP4","ARG_OF_PERICENTER":"84.6266","RA_OF_ASC_NODE":"338.8540","COUNTRY_CODE":"US","RCS_SIZE":"LARGE","NORAD_CAT_ID":"47562","CENTER_NAME":"EARTH","INCLINATION":"53.0567","MEAN_MOTION":"15.06396438","ELEMENT_SET_NO":"999","MEAN_MOTION_DOT":"0.00000248","OBJECT_NAME":"STARLINK-1961","ECCENTRICITY":"0.00011870","OBJECT_ID":"2021-009Q","SEMIMAJOR_AXIS":"6925.359","TLE_LINE2":"2 47562  53.0567 338.8540 0001187  84.6266 275.4858 15.06396438 40493","PERIOD":"95.592","TIME_SYSTEM":"UTC","EPHEMERIS_TYPE":"0","FILE":"3187107","GP_ID":"188273410","BSTAR":"0.00003552300000","OBJECT_TYPE":"PAYLOAD","EPOCH":"2021-10-27T08:35:22.045056","PERIAPSIS":"546.402","REV_AT_EPOCH":"4049"},{"MEAN_ANOMALY":"272.3167","DECAY_DATE":null,"CLASSIFICATION_TYPE":"U","SITE":"AFETR","MEAN_MOTION_DDOT":"0.0000000000000","TLE_LINE1":"1 47563U 21009R   21300.38000558  .00000167  00000-0  30129-4 0  9995","APOAPSIS":"548.110","NORAD_CAT_ID":"47563","CENTER_NAME":"EARTH","COUNTRY_CODE":"US","RA_OF_ASC_NODE":"338.7538","RCS_SIZE":"LARGE","ARG_OF_PERICENTER":"87.7971","REF_FRAME":"TEME","LAUNCH_DATE":"2021-02-04","MEAN_ELEMENT_THEORY":"SGP4","TIME_SYSTEM":"UTC","EPHEMERIS_TYPE":"0","SEMIMAJOR_AXIS":"6925.347","OBJECT_ID":"2021-009R","PERIOD":"95.592","TLE_LINE2":"2 47563  53.0573 338.7538 0001296  87.7971 272.3167 15.06400454 40498","ELEMENT_SET_NO":"999","MEAN_MOTION_DOT":"0.00000167","MEAN_MOTION":"15.06400454","OBJECT_NAME":"STARLINK-1962","ECCENTRICITY":"0.00012960","INCLINATION":"53.0573","EPOCH":"2021-10-27T09:07:12.482112","OBJECT_TYPE":"PAYLOAD","BSTAR":"0.00003012900000","REV_AT_EPOCH":"4049","PERIAPSIS":"546.315","FILE":"3187107","GP_ID":"188273161"},{"EPHEMERIS_TYPE":"0","TIME_SYSTEM":"UTC","SEMIMAJOR_AXIS":"6925.343","OBJECT_ID":"2021-009S","PERIOD":"95.592","TLE_LINE2":"2 47564  53.0565 328.7476 0001317  72.4324 287.6809 15.06401811 40633","MEAN_MOTION_DOT":"0.00000822","ELEMENT_SET_NO":"999","MEAN_MOTION":"15.06401811","OBJECT_NAME":"STARLINK-1963","ECCENTRICITY":"0.00013170","INCLINATION":"53.0565","OBJECT_TYPE":"PAYLOAD","EPOCH":"2021-10-27T09:08:32.178336","BSTAR":"0.00007404000000","REV_AT_EPOCH":"4063","PERIAPSIS":"546.296","FILE":"3187107","GP_ID":"188271909","MEAN_ANOMALY":"287.6809","DECAY_DATE":null,"CLASSIFICATION_TYPE":"U","SITE":"AFETR","MEAN_MOTION_DDOT":"0.0000000000000","TLE_LINE1":"1 47564U 21009S   21300.38092799  .00000822  00000-0  74040-4 0  9992","APOAPSIS":"548.120","NORAD_CAT_ID":"47564","CENTER_NAME":"EARTH","RA_OF_ASC_NODE":"328.7476","COUNTRY_CODE":"US","RCS_SIZE":"LARGE","ARG_OF_PERICENTER":"72.4324","REF_FRAME":"TEME","LAUNCH_DATE":"2021-02-04","MEAN_ELEMENT_THEORY":"SGP4"},{"REF_FRAME":"TEME","LAUNCH_DATE":"2021-02-04","MEAN_ELEMENT_THEORY":"SGP4","ARG_OF_PERICENTER":"75.0410","COUNTRY_CODE":"US","RA_OF_ASC_NODE":"327.8688","RCS_SIZE":"LARGE","NORAD_CAT_ID":"47565","CENTER_NAME":"EARTH","TLE_LINE1":"1 47565U 21009T   21300.57628352  .00001306  00000-0  10654-3 0  9992","APOAPSIS":"548.154","SITE":"AFETR","MEAN_MOTION_DDOT":"0.0000000000000","MEAN_ANOMALY":"285.0731","CLASSIFICATION_TYPE":"U","DECAY_DATE":null,"FILE":"3187583","GP_ID":"188283662","EPOCH":"2021-10-27T13:49:50.896128","OBJECT_TYPE":"PAYLOAD","BSTAR":"0.00010654000000","REV_AT_EPOCH":"4126","PERIAPSIS":"546.257","INCLINATION":"53.0554","MEAN_MOTION_DOT":"0.00001306","ELEMENT_SET_NO":"999","MEAN_MOTION":"15.06402649","OBJECT_NAME":"STARLINK-1964","ECCENTRICITY":"0.00013690","SEMIMAJOR_AXIS":"6925.340","OBJECT_ID":"2021-009T","PERIOD":"95.592","TLE_LINE2":"2 47565  53.0554 327.8688 0001369  75.0410 285.0731 15.06402649 41265","TIME_SYSTEM":"UTC","EPHEMERIS_TYPE":"0"},{"INCLINATION":"53.0558","OBJECT_NAME":"STARLINK-1965","ECCENTRICITY":"0.00013780","MEAN_MOTION":"15.06399028","MEAN_MOTION_DOT":"0.00000733","ELEMENT_SET_NO":"999","TLE_LINE2":"2 47566  53.0558 318.4896 0001378  74.3014 285.8127 15.06399028 41396","PERIOD":"95.592","OBJECT_ID":"2021-009U","SEMIMAJOR_AXIS":"6925.352","TIME_SYSTEM":"UTC","EPHEMERIS_TYPE":"0","GP_ID":"188284055","FILE":"3187583","REV_AT_EPOCH":"4139","PERIAPSIS":"546.262","BSTAR":"0.00006806900000","OBJECT_TYPE":"PAYLOAD","EPOCH":"2021-10-27T10:29:29.171616","APOAPSIS":"548.171","TLE_LINE1":"1 47566U 21009U   21300.43714319  .00000733  00000-0  68069-4 0  9994","MEAN_MOTION_DDOT":"0.0000000000000","SITE":"AFETR","DECAY_DATE":null,"CLASSIFICATION_TYPE":"U","MEAN_ANOMALY":"285.8127","MEAN_ELEMENT_THEORY":"SGP4","LAUNCH_DATE":"2021-02-04","REF_FRAME":"TEME","ARG_OF_PERICENTER":"74.3014","RCS_SIZE":"LARGE","RA_OF_ASC_NODE":"318.4896","COUNTRY_CODE":"US","NORAD_CAT_ID":"47566","CENTER_NAME":"EARTH"},{"ARG_OF_PERICENTER":"82.9789","REF_FRAME":"TEME","LAUNCH_DATE":"2021-02-04","MEAN_ELEMENT_THEORY":"SGP4","NORAD_CAT_ID":"47567","CENTER_NAME":"EARTH","COUNTRY_CODE":"US","RA_OF_ASC_NODE":"358.9280","RCS_SIZE":"LARGE","TLE_LINE1":"1 47567U 21009V   21300.34131261 -.00001318  00000-0 -69637-4 0  9998","APOAPSIS":"547.965","MEAN_ANOMALY":"277.1324","CLASSIFICATION_TYPE":"U","DECAY_DATE":null,"SITE":"AFETR","MEAN_MOTION_DDOT":"0.0000000000000","FILE":"3187107","GP_ID":"188273661","EPOCH":"2021-10-27T08:11:29.409504","OBJECT_TYPE":"PAYLOAD","BSTAR":"-0.00006963700000","REV_AT_EPOCH":"4020","PERIAPSIS":"546.452","ELEMENT_SET_NO":"999","MEAN_MOTION_DOT":"-0.00001318","MEAN_MOTION":"15.06401658","OBJECT_NAME":"STARLINK-1966","ECCENTRICITY":"0.00010920","INCLINATION":"53.0567","TIME_SYSTEM":"UTC","EPHEMERIS_TYPE":"0","SEMIMAJOR_AXIS":"6925.343","OBJECT_ID":"2021-009V","PERIOD":"95.592","TLE_LINE2":"2 47567  53.0567 358.9280 0001092  82.9789 277.1324 15.06401658 40205"},{"APOAPSIS":"548.085","TLE_LINE1":"1 47568U 21009W   21300.63249532  .00000271  00000-0  37065-4 0  9997","SITE":"AFETR","MEAN_MOTION_DDOT":"0.0000000000000","MEAN_ANOMALY":"273.6049","CLASSIFICATION_TYPE":"U","DECAY_DATE":null,"MEAN_ELEMENT_THEORY":"SGP4","REF_FRAME":"TEME","LAUNCH_DATE":"2021-02-04","ARG_OF_PERICENTER":"86.5081","RCS_SIZE":"LARGE","RA_OF_ASC_NODE":"357.6253","COUNTRY_CODE":"US","CENTER_NAME":"EARTH","NORAD_CAT_ID":"47568","INCLINATION":"53.0557","OBJECT_NAME":"STARLINK-1967","ECCENTRICITY":"0.00012280","ELEMENT_SET_NO":"999","MEAN_MOTION_DOT":"0.00000271","MEAN_MOTION":"15.06393200","PERIOD":"95.593","TLE_LINE2":"2 47568  53.0557 357.6253 0001228  86.5081 273.6049 15.06393200 40856","SEMIMAJOR_AXIS":"6925.369","OBJECT_ID":"2021-009W","TIME_SYSTEM":"UTC","EPHEMERIS_TYPE":"0","GP_ID":"188283656","FILE":"3187583","REV_AT_EPOCH":"4085","PERIAPSIS":"546.384","EPOCH":"2021-10-27T15:10:47.595648","OBJECT_TYPE":"PAYLOAD","BSTAR":"0.00003706500000"},{"REV_AT_EPOCH":"4122","PERIAPSIS":"527.682","EPOCH":"2021-10-27T16:57:27.865728","OBJECT_TYPE":"PAYLOAD","BSTAR":"0.01145900000000","GP_ID":"188284057","FILE":"3187583","TIME_SYSTEM":"UTC","EPHEMERIS_TYPE":"0","PERIOD":"95.205","TLE_LINE2":"2 47569  53.0567 332.0846 0001203  67.6656 292.4463 15.12522385 41220","SEMIMAJOR_AXIS":"6906.648","OBJECT_ID":"2021-009X","ECCENTRICITY":"0.00012030","OBJECT_NAME":"STARLINK-1968","ELEMENT_SET_NO":"999","MEAN_MOTION_DOT":"0.00207597","MEAN_MOTION":"15.12522385","INCLINATION":"53.0567","NORAD_CAT_ID":"47569","CENTER_NAME":"EARTH","RCS_SIZE":"LARGE","COUNTRY_CODE":"US","RA_OF_ASC_NODE":"332.0846","ARG_OF_PERICENTER":"67.6656","MEAN_ELEMENT_THEORY":"SGP4","REF_FRAME":"TEME","LAUNCH_DATE":"2021-02-04","MEAN_ANOMALY":"292.4463","CLASSIFICATION_TYPE":"U","DECAY_DATE":null,"SITE":"AFETR","MEAN_MOTION_DDOT":"0.0000000000000","APOAPSIS":"529.344","TLE_LINE1":"1 47569U 21009X   21300.70657252  .00207597  00000-0  11459-1 0  9994"},{"APOAPSIS":"548.079","TLE_LINE1":"1 47570U 21009Y   21300.35974144  .00000806  00000-0  73008-4 0  9994","SITE":"AFETR","MEAN_MOTION_DDOT":"0.0000000000000","MEAN_ANOMALY":"284.2960","DECAY_DATE":null,"CLASSIFICATION_TYPE":"U","MEAN_ELEMENT_THEORY":"SGP4","REF_FRAME":"TEME","LAUNCH_DATE":"2021-02-04","ARG_OF_PERICENTER":"75.8174","RCS_SIZE":"LARGE","RA_OF_ASC_NODE":"318.8516","COUNTRY_CODE":"US","CENTER_NAME":"EARTH","NORAD_CAT_ID":"47570","INCLINATION":"53.0544","ECCENTRICITY":"0.00012980","OBJECT_NAME":"STARLINK-1969","MEAN_MOTION_DOT":"0.00000806","ELEMENT_SET_NO":"999","MEAN_MOTION":"15.06410866","PERIOD":"95.591","TLE_LINE2":"2 47570  53.0544 318.8516 0001298  75.8174 284.2960 15.06410866 40776","SEMIMAJOR_AXIS":"6925.315","OBJECT_ID":"2021-009Y","EPHEMERIS_TYPE":"0","TIME_SYSTEM":"UTC","GP_ID":"188273411","FILE":"3187107","REV_AT_EPOCH":"4077","PERIAPSIS":"546.281","EPOCH":"2021-10-27T08:38:01.660416","OBJECT_TYPE":"PAYLOAD","BSTAR":"0.00007300800000"}];
